{
  "type": "FeatureCollection",
  "features": [
    {
      "type": "Feature",
      "properties": {
        "norad_id": 29975,
        "name": "FENGYUN 1C DEB",
        "group": "fengyun-1c-debris",
        "lat": 1.8733586889288607,
        "lon": -158.12422260722624,
        "alt_km": 973.0443091609341,
        "timestamp": "2025-12-06T14:35:37.398967+00:00",
        "meta_object_name": "FENGYUN 1C DEB",
        "meta_object_id": "1999-025KZ",
        "meta_epoch": "2025-12-06T01:51:55.871136",
        "meta_mean_motion": 13.98023644,
        "meta_eccentricity": 0.01140302,
        "meta_inclination": 99.3407,
        "meta_ra_of_asc_node": 21.0278,
        "meta_arg_of_pericenter": 31.8769,
        "meta_mean_anomaly": 357.699,
        "meta_ephemeris_type": 0,
        "meta_classification_type": "U",
        "meta_norad_cat_id": 29975,
        "meta_element_set_no": 999,
        "meta_rev_at_epoch": 96344,
        "meta_bstar": 0.0001550153,
        "meta_mean_motion_dot": 1.87e-06,
        "meta_mean_motion_ddot": 0,
        "tle_line1": "1 29975U 99025KZ  25340.07772999  .00000187  00000+0  15502-3 0  9992",
        "tle_line2": "2 29975  99.3407  21.0278 0114030  31.8769 357.6990 13.98023644963444"
      },
      "geometry": {
        "type": "Point",
        "coordinates": [
          -158.12422260722624,
          1.8733586889288607
        ]
      }
    },
    {
      "type": "Feature",
      "properties": {
        "norad_id": 29976,
        "name": "FENGYUN 1C DEB",
        "group": "fengyun-1c-debris",
        "lat": -4.680486766664602,
        "lon": -21.181620526441538,
        "alt_km": 928.5891269195918,
        "timestamp": "2025-12-06T14:35:37.398977+00:00",
        "meta_object_name": "FENGYUN 1C DEB",
        "meta_object_id": "1999-025LA",
        "meta_epoch": "2025-12-06T06:21:38.158272",
        "meta_mean_motion": 13.98099712,
        "meta_eccentricity": 0.02675365,
        "meta_inclination": 98.9176,
        "meta_ra_of_asc_node": 337.7481,
        "meta_arg_of_pericenter": 257.5114,
        "meta_mean_anomaly": 169.1681,
        "meta_ephemeris_type": 0,
        "meta_classification_type": "U",
        "meta_norad_cat_id": 29976,
        "meta_element_set_no": 999,
        "meta_rev_at_epoch": 96246,
        "meta_bstar": 0.00039257703,
        "meta_mean_motion_dot": 7.12e-06,
        "meta_mean_motion_ddot": 0,
        "tle_line1": "1 29976U 99025LA  25340.26502498  .00000712  00000+0  39258-3 0  9997",
        "tle_line2": "2 29976  98.9176 337.7481 0267536 257.5114 169.1681 13.98099712962460"
      },
      "geometry": {
        "type": "Point",
        "coordinates": [
          -21.181620526441538,
          -4.680486766664602
        ]
      }
    },
    {
      "type": "Feature",
      "properties": {
        "norad_id": 29977,
        "name": "FENGYUN 1C DEB",
        "group": "fengyun-1c-debris",
        "lat": 49.45534439651456,
        "lon": 33.04517669082535,
        "alt_km": 947.6239365702013,
        "timestamp": "2025-12-06T14:35:37.398987+00:00",
        "meta_object_name": "FENGYUN 1C DEB",
        "meta_object_id": "1999-025LB",
        "meta_epoch": "2025-12-05T14:18:32.192352",
        "meta_mean_motion": 14.05037452,
        "meta_eccentricity": 0.01286628,
        "meta_inclination": 98.3952,
        "meta_ra_of_asc_node": 202.1674,
        "meta_arg_of_pericenter": 277.3127,
        "meta_mean_anomaly": 137.9912,
        "meta_ephemeris_type": 0,
        "meta_classification_type": "U",
        "meta_norad_cat_id": 29977,
        "meta_element_set_no": 999,
        "meta_rev_at_epoch": 96260,
        "meta_bstar": 0.002412817,
        "meta_mean_motion_dot": 4.147e-05,
        "meta_mean_motion_ddot": 0,
        "tle_line1": "1 29977U 99025LB  25339.59620593  .00004147  00000+0  24128-2 0  9994",
        "tle_line2": "2 29977  98.3952 202.1674 0128662 277.3127 137.9912 14.05037452962604"
      },
      "geometry": {
        "type": "Point",
        "coordinates": [
          33.04517669082535,
          49.45534439651456
        ]
      }
    },
    {
      "type": "Feature",
      "properties": {
        "norad_id": 29978,
        "name": "FENGYUN 1C DEB",
        "group": "fengyun-1c-debris",
        "lat": 54.536096143059986,
        "lon": 18.20828780907196,
        "alt_km": 848.2101864742253,
        "timestamp": "2025-12-06T14:35:37.398998+00:00",
        "meta_object_name": "FENGYUN 1C DEB",
        "meta_object_id": "1999-025LC",
        "meta_epoch": "2025-12-06T02:25:47.052192",
        "meta_mean_motion": 13.95905687,
        "meta_eccentricity": 0.00768925,
        "meta_inclination": 99.0625,
        "meta_ra_of_asc_node": 30.6569,
        "meta_arg_of_pericenter": 70.2395,
        "meta_mean_anomaly": 320.0101,
        "meta_ephemeris_type": 0,
        "meta_classification_type": "U",
        "meta_norad_cat_id": 29978,
        "meta_element_set_no": 999,
        "meta_rev_at_epoch": 96224,
        "meta_bstar": 0.00015701866,
        "meta_mean_motion_dot": 1.77e-06,
        "meta_mean_motion_ddot": 0,
        "tle_line1": "1 29978U 99025LC  25340.10123903  .00000177  00000+0  15702-3 0  9995",
        "tle_line2": "2 29978  99.0625  30.6569 0076892  70.2395 320.0101 13.95905687962248"
      },
      "geometry": {
        "type": "Point",
        "coordinates": [
          18.20828780907196,
          54.536096143059986
        ]
      }
    },
    {
      "type": "Feature",
      "properties": {
        "norad_id": 29979,
        "name": "FENGYUN 1C DEB",
        "group": "fengyun-1c-debris",
        "lat": 50.89055956052615,
        "lon": -165.4749385210204,
        "alt_km": 753.3533942780041,
        "timestamp": "2025-12-06T14:35:37.399008+00:00",
        "meta_object_name": "FENGYUN 1C DEB",
        "meta_object_id": "1999-025LD",
        "meta_epoch": "2025-12-06T07:33:35.281152",
        "meta_mean_motion": 14.25942732,
        "meta_eccentricity": 0.01072208,
        "meta_inclination": 98.3708,
        "meta_ra_of_asc_node": 3.8101,
        "meta_arg_of_pericenter": 181.7874,
        "meta_mean_anomaly": 243.825,
        "meta_ephemeris_type": 0,
        "meta_classification_type": "U",
        "meta_norad_cat_id": 29979,
        "meta_element_set_no": 999,
        "meta_rev_at_epoch": 97982,
        "meta_bstar": 0.00081630381,
        "meta_mean_motion_dot": 2.026e-05,
        "meta_mean_motion_ddot": 0,
        "tle_line1": "1 29979U 99025LD  25340.31499168  .00002026  00000+0  81630-3 0  9996",
        "tle_line2": "2 29979  98.3708   3.8101 0107220 181.7874 243.8250 14.25942732979822"
      },
      "geometry": {
        "type": "Point",
        "coordinates": [
          -165.4749385210204,
          50.89055956052615
        ]
      }
    },
    {
      "type": "Feature",
      "properties": {
        "norad_id": 29980,
        "name": "FENGYUN 1C DEB",
        "group": "fengyun-1c-debris",
        "lat": 48.32597520153483,
        "lon": -20.170006328673214,
        "alt_km": 911.464202239662,
        "timestamp": "2025-12-06T14:35:37.399018+00:00",
        "meta_object_name": "FENGYUN 1C DEB",
        "meta_object_id": "1999-025LE",
        "meta_epoch": "2025-12-06T00:53:19.137984",
        "meta_mean_motion": 14.06308395,
        "meta_eccentricity": 0.0086732,
        "meta_inclination": 98.5515,
        "meta_ra_of_asc_node": 149.5589,
        "meta_arg_of_pericenter": 266.9999,
        "meta_mean_anomaly": 215.1673,
        "meta_ephemeris_type": 0,
        "meta_classification_type": "U",
        "meta_norad_cat_id": 29980,
        "meta_element_set_no": 999,
        "meta_rev_at_epoch": 96898,
        "meta_bstar": 0.00022405586,
        "meta_mean_motion_dot": 3.4e-06,
        "meta_mean_motion_ddot": 0,
        "tle_line1": "1 29980U 99025LE  25340.03702706  .00000340  00000+0  22406-3 0  9995",
        "tle_line2": "2 29980  98.5515 149.5589 0086732 266.9999 215.1673 14.06308395968984"
      },
      "geometry": {
        "type": "Point",
        "coordinates": [
          -20.170006328673214,
          48.32597520153483
        ]
      }
    },
    {
      "type": "Feature",
      "properties": {
        "norad_id": 29982,
        "name": "FENGYUN 1C DEB",
        "group": "fengyun-1c-debris",
        "lat": -75.22217898669271,
        "lon": -160.10782928564728,
        "alt_km": 600.6603163745667,
        "timestamp": "2025-12-06T14:35:37.399028+00:00",
        "meta_object_name": "FENGYUN 1C DEB",
        "meta_object_id": "1999-025LG",
        "meta_epoch": "2025-12-06T00:46:21.408672",
        "meta_mean_motion": 14.66797535,
        "meta_eccentricity": 0.01221786,
        "meta_inclination": 99.4014,
        "meta_ra_of_asc_node": 160.3245,
        "meta_arg_of_pericenter": 308.7867,
        "meta_mean_anomaly": 174.1161,
        "meta_ephemeris_type": 0,
        "meta_classification_type": "U",
        "meta_norad_cat_id": 29982,
        "meta_element_set_no": 999,
        "meta_rev_at_epoch": 185,
        "meta_bstar": 0.0010503805,
        "meta_mean_motion_dot": 6.486e-05,
        "meta_mean_motion_ddot": 0,
        "tle_line1": "1 29982U 99025LG  25340.03219223  .00006486  00000+0  10504-2 0  9996",
        "tle_line2": "2 29982  99.4014 160.3245 0122178 308.7867 174.1161 14.66797535  1858"
      },
      "geometry": {
        "type": "Point",
        "coordinates": [
          -160.10782928564728,
          -75.22217898669271
        ]
      }
    }
  ]
}